NORAD_CAT_ID,OBJECT_NAME,OBJECT_TYPE,EPOCH,MEAN_MOTION,ECCENTRICITY,INCLINATION,RA_OF_ASC_NODE,ARG_OF_PERICENTER,MEAN_ANOMALY,BSTAR,MEAN_MOTION_DOT,MEAN_MOTION_DDOT,TLE_LINE0,TLE_LINE1,TLE_LINE2,SEMIMAJOR_AXIS,PERIOD,APOGEE,PERIGEE,DECAYED
51973.0,STARLINK-3679,PAYLOAD,2022-03-16 14:00:01,15.82538326,0.0001111,53.2173,105.1713,74.9763,159.9344,-0.0045328,-0.00875362,0.0,0 STARLINK-3679,1 51973U 22025T   22075.58334491 -.00875362  00000-0 -45328-2 0  9996,2 51973  53.2173 105.1713 0001111  74.9763 159.9344 15.82538326  2376,6701.401999999999,90.993,324.012,322.523,0.0
51973.0,STARLINK-3679,PAYLOAD,2022-03-16 20:00:01,15.82068642,0.0001247,53.2176,103.9158,56.5755,163.23,-0.0046586,-0.00879539,0.0,0 STARLINK-3679,1 51973U 22025T   22075.83334491 -.00879539  00000-0 -46586-2 0  9991,2 51973  53.2176 103.9158 0001247  56.5755 163.2300 15.82068642  1351,6702.728,91.02,325.4290000000001,323.758,0.0
51973.0,STARLINK-3679,PAYLOAD,2022-03-17 06:00:00,15.81280878,0.0001326,53.2174,101.8289,42.6936,30.9907,-0.0048216,-0.00877521,0.0,0 STARLINK-3679,1 51973U 22025T   22076.25001157 -.00877521  00000-0 -48216-2 0  9999,2 51973  53.2174 101.8289 0001326  42.6936  30.9907 15.81280878  2479,6704.954000000002,91.065,327.708,325.93,0.0
51973.0,STARLINK-3679,PAYLOAD,2022-03-17 14:00:01,15.80651432,0.0001239,53.2171,100.161,57.431,114.5051,-0.0049603,-0.00876727,0.0,0 STARLINK-3679,1 51973U 22025T   22076.58334491 -.00876727  00000-0 -49603-2 0  9993,2 51973  53.2171 100.1610 0001239  57.4310 114.5051 15.80651432  1474,6706.734,91.102,329.43,327.76800000000014,0.0
51973.0,STARLINK-3679,PAYLOAD,2022-03-17 22:00:00,15.80020852,0.0001097,53.2174,98.4918,70.8401,198.5941,-0.0050938999999999,-0.00874609,0.0,0 STARLINK-3679,1 51973U 22025T   22076.91667824 -.00874609  00000-0 -50939-2 0  9990,2 51973  53.2174  98.4918 0001097  70.8401 198.5941 15.80020852  1521,6708.519,91.138,331.12,329.648,0.0
51973.0,STARLINK-3679,PAYLOAD,2022-03-18 08:00:01,15.79156309,0.0001195,53.2178,96.4128,69.3415,50.9367,-0.0046095,-0.00770151,0.0,0 STARLINK-3679,1 51973U 22025T   22077.33334491 -.00770151  00000-0 -46095-2 0  9993,2 51973  53.2178  96.4128 0001195  69.3415  50.9367 15.79156309  2645,6710.967,91.188,333.634,332.03,0.0
51973.0,STARLINK-3679,PAYLOAD,2022-03-18 14:00:01,15.78764177,0.0001093,53.2172,95.1642,63.8789,38.2772,-0.0054141999999999,-0.00877269,0.0,0 STARLINK-3679,1 51973U 22025T   22077.58334491 -.00877269  00000-0 -54142-2 0  9990,2 51973  53.2172  95.1642 0001093  63.8789  38.2772 15.78764177  1630,6712.078,91.211,334.677,333.209,0.0
51973.0,STARLINK-3679,PAYLOAD,2022-03-18 20:00:01,15.78289474,0.000127,53.2174,93.9158,44.3057,39.3439,-0.0054989,-0.00872529,0.0,0 STARLINK-3679,1 51973U 22025T   22077.83334491 -.00872529  00000-0 -54989-2 0  9991,2 51973  53.2174  93.9158 0001270  44.3057  39.3439 15.78289474  2724,6713.424,91.238,336.141,334.436,0.0
51973.0,STARLINK-3679,PAYLOAD,2022-03-18 22:00:00,15.78133786,0.0001336,53.2172,93.4998,52.9564,144.4288,-0.0055565,-0.00875211,0.0,0 STARLINK-3679,1 51973U 22025T   22077.91667824 -.00875211  00000-0 -55565-2 0  9991,2 51973  53.2172  93.4998 0001336  52.9564 144.4288 15.78133786  1688,6713.865,91.247,336.6269999999999,334.833,0.0
51973.0,STARLINK-3679,PAYLOAD,2022-03-19 14:00:01,15.76876018,9.8e-05,53.2171,90.1817,73.4942,312.0762,-0.0058826999999999,-0.00875437,0.0,0 STARLINK-3679,1 51973U 22025T   22078.58334491 -.00875437  00000-0 -58827-2 0  9990,2 51973  53.2171  90.1817 0000980  73.4942 312.0762 15.76876018  2842,6717.435,91.32,339.958,338.642,0.0
51973.0,STARLINK-3679,PAYLOAD,2022-03-19 22:00:01,15.76245843,0.0001317,53.2173,88.5218,47.7134,70.8832,-0.0060487,-0.00875321,0.0,0 STARLINK-3679,1 51973U 22025T   22078.91668981 -.00875321  00000-0 -60487-2 0  9998,2 51973  53.2173  88.5218 0001317  47.7134  70.8832 15.76245843  1844,6719.225,91.356,341.975,340.205,0.0
51973.0,STARLINK-3679,PAYLOAD,2022-03-20 12:00:00,15.75141512,0.0001309,53.2172,85.6268,56.729,132.6597,-0.0062998,-0.00868869,0.0,0 STARLINK-3679,1 51973U 22025T   22079.50001157 -.00868869  00000-0 -62998-2 0  9998,2 51973  53.2172  85.6268 0001309  56.7290 132.6597 15.75141512  2988,6722.366,91.42,345.11,343.351,0.0
51973.0,STARLINK-3679,PAYLOAD,2022-03-20 14:00:01,15.74988519,0.0001132,53.2172,85.2127,61.1398,241.0385,-0.0063997,-0.00875916,0.0,0 STARLINK-3679,1 51973U 22025T   22079.58334491 -.00875916  00000-0 -63997-2 0  9997,2 51973  53.2172  85.2127 0001132  61.1398 241.0385 15.74988519  1952,6722.801,91.429,345.427,343.905,0.0
51973.0,STARLINK-3679,PAYLOAD,2022-03-20 22:00:01,15.74357106,0.0001153,53.2172,83.5578,49.663,343.2735,-0.0065627,-0.00873936,0.0,0 STARLINK-3679,1 51973U 22025T   22079.91668981 -.00873936  00000-0 -65627-2 0  9990,2 51973  53.2172  83.5578 0001153  49.6630 343.2735 15.74357106  2009,6724.598000000001,91.466,347.23900000000015,345.68800000000016,0.0
51973.0,STARLINK-3679,PAYLOAD,2022-03-21 14:00:01,15.73206751,0.0001186,53.2171,80.2579,67.0948,144.9005,-3.7403e-05,-5.867e-05,0.0,0 STARLINK-3679,1 51973U 22025T   22080.58334491 -.00005867  00000-0 -37403-4 0  9994,2 51973  53.2171  80.2579 0001186  67.0948 144.9005 15.73206751  3156,6727.876,91.533,350.539,348.9430000000001,0.0
51973.0,STARLINK-3679,PAYLOAD,2022-03-21 22:00:00,15.73164635,0.0001361999999999,53.2176,78.6086,62.1792,238.7803,0.00033162,0.00046106,0.0,0 STARLINK-3679,1 51973U 22025T   22080.91667824  .00046106  00000-0  33162-3 0  9996,2 51973  53.2176  78.6086 0001362  62.1792 238.7803 15.73164635  2166,6727.996,91.535,350.777,348.945,0.0
51973.0,STARLINK-3679,PAYLOAD,2022-03-22 04:00:00,15.73239127,0.0001662,53.2194,77.3781,65.2514,212.3966,6.4228e-05,8.417e-05,0.0,0 STARLINK-3679,1 51973U 22025T   22081.16667824  .00008417  00000-0  64228-4 0  9995,2 51973  53.2194  77.3781 0001662  65.2514 212.3966 15.73239127  3251,6727.784000000002,91.531,350.767,348.53,0.0
51973.0,STARLINK-3679,PAYLOAD,2022-03-22 14:00:01,15.73314846,0.0001573,53.2189,75.3165,60.7885,58.0903,-0.0006443,-0.00090522,0.0,0 STARLINK-3679,1 51973U 22025T   22081.58334491 -.00090522  00000-0 -64430-3 0  9996,2 51973  53.2189  75.3165 0001573  60.7885  58.0903 15.73314846  3316,6727.568,91.526,350.491,348.375,0.0
51973.0,STARLINK-3679,PAYLOAD,2022-03-22 20:00:01,15.73246592,0.0001255,53.219,74.078,67.7194,27.9534,4.938e-05,6.329e-05,0.0,0 STARLINK-3679,1 51973U 22025T   22081.83334491  .00006329  00000-0  49380-4 0  9992,2 51973  53.2190  74.0780 0001255  67.7194  27.9534 15.73246592  3355,6727.762,91.53,350.472,348.783,0.0
51973.0,STARLINK-3679,PAYLOAD,2022-03-22 22:00:01,15.73260185,0.0001216,53.2191,73.6653,69.4919,138.4892,-0.00016328,-0.0002353,0.0,0 STARLINK-3679,1 51973U 22025T   22081.91668981 -.00023530  00000-0 -16328-3 0  9995,2 51973  53.2191  73.6653 0001216  69.4919 138.4892 15.73260185  2326,6727.724,91.53,350.407,348.77,0.0
51973.0,STARLINK-3679,PAYLOAD,2022-03-23 14:00:01,15.73238168,0.0001073,53.2194,70.3682,51.3299,334.5197,-0.00056003,-0.00078611,0.0,0 STARLINK-3679,1 51973U 22025T   22082.58334491 -.00078611  00000-0 -56003-3 0  9999,2 51973  53.2194  70.3682 0001073  51.3299 334.5197 15.73238168  3477,6727.786,91.531,350.37300000000016,348.92900000000014,0.0
51973.0,STARLINK-3679,PAYLOAD,2022-03-23 22:00:00,15.73158827,0.0001145,53.2199,68.7172,67.8113,46.9733,0.00061412,0.00086304,0.0,0 STARLINK-3679,1 51973U 22025T   22082.91667824  .00086304  00000-0  61412-3 0  9991,2 51973  53.2199  68.7172 0001145  67.8113  46.9733 15.73158827  2476,6728.013000000001,91.536,350.648,349.107,0.0
51973.0,STARLINK-3679,PAYLOAD,2022-03-24 06:00:00,15.73238284,0.0001247,53.2199,67.07,58.0408,145.6505,-0.00041931,-0.0005915,0.0,0 STARLINK-3679,1 51973U 22025T   22083.25001157 -.00059150  00000-0 -41931-3 0  9995,2 51973  53.2199  67.0700 0001247  58.0408 145.6505 15.73238284  3579,6727.786,91.531,350.49,348.81199999999984,0.0
51973.0,STARLINK-3679,PAYLOAD,2022-03-24 14:00:01,15.73228526,0.0001095,53.2195,65.4199,56.4533,236.193,-0.00046408,-0.00065324,0.0,0 STARLINK-3679,1 51973U 22025T   22083.58334491 -.00065324  00000-0 -46408-3 0  9995,2 51973  53.2195  65.4199 0001095  56.4533 236.1930 15.73228526  2587,6727.814,91.532,350.416,348.94199999999995,0.0
51973.0,STARLINK-3679,PAYLOAD,2022-03-24 22:00:00,15.73153857,0.0001149,53.2197,63.7693,73.1827,308.4083,0.00061476,0.00086377,0.0,0 STARLINK-3679,1 51973U 22025T   22083.91667824  .00086377  00000-0  61476-3 0  9992,2 51973  53.2197  63.7693 0001149  73.1827 308.4083 15.73153857  2633,6728.026999999999,91.536,350.665,349.119,0.0
51973.0,STARLINK-3679,PAYLOAD,2022-03-25 00:00:02,15.73176192,0.0001196,53.2198,63.3575,73.4668,60.4004,0.00036373,0.00050683,0.0,0 STARLINK-3679,1 51973U 22025T   22084.00002315  .00050683  00000-0  36373-3 0  9990,2 51973  53.2198  63.3575 0001196  73.4668  60.4004 15.73176192  3699,6727.9630000000025,91.535,350.6330000000001,349.023,0.0
51973.0,STARLINK-3679,PAYLOAD,2022-03-25 12:00:00,15.73248243,0.0001335,53.2195,60.8848,62.8211,24.3666,-0.00048098,-0.0006772,0.0,0 STARLINK-3679,1 51973U 22025T   22084.50001157 -.00067720  00000-0 -48098-3 0  9997,2 51973  53.2195  60.8848 0001335  62.8211  24.3666 15.73248243  3771,6727.7580000000025,91.53,350.521,348.724,0.0
51973.0,STARLINK-3679,PAYLOAD,2022-03-25 14:00:01,15.73247546,0.0001305,53.2197,60.4719,67.2043,132.2254,-0.00065124,-0.00091217,0.0,0 STARLINK-3679,1 51973U 22025T   22084.58334491 -.00091217  00000-0 -65124-3 0  9992,2 51973  53.2197  60.4719 0001305  67.2043 132.2254 15.73247546  2748,6727.76,91.53,350.50300000000016,348.747,0.0
51973.0,STARLINK-3679,PAYLOAD,2022-03-25 22:00:01,15.73163209,0.0001271,53.2202,58.8213,77.7047,210.7427,0.00041086,0.00057345,0.0,0 STARLINK-3679,1 51973U 22025T   22084.91668981  .00057345  00000-0  41086-3 0  9996,2 51973  53.2202  58.8213 0001271  77.7047 210.7427 15.73163209  2799,6728.0,91.535,350.72,349.01,0.0
